{"type":"FeatureCollection","features":[{"type":"Feature","properties":{"kind":"held"},"geometry":{"type":"Polygon","coordinates":[[[73.31861,33.37769],[73.08457,33.49486],[73.09258,33.64733],[73.30912,33.74352],[73.08501,33.88795],[73.08537,34.24699],[73.20836,34.31575],[73.08494,34.65121],[73.21428,34.81215],[73.48282,34.92435],[73.53574,34.86958],[73.78946,35.0155],[73.60295,35.05389],[73.52875,35.15089],[73.48699,35.33381],[73.20619,35.42646],[72.99777,35.56818],[72.93055,35.67539],[72.80359,35.63677],[72.58852,35.66476],[72.38987,35.74714],[72.31628,35.87806],[72.33173,36.13986],[72.4057,36.35554],[72.70088,36.52522],[72.871,36.67801],[72.90474,36.80787],[73.00192,36.88679],[73.15795,36.935],[73.51605,36.93868],[73.58285,37.04829],[73.68944,37.09389],[73.98122,37.039],[74.6295,37.25276],[74.91328,37.17629],[75.14977,37.18979],[75.44073,37.09579],[75.5671,36.96752],[75.82853,36.89767],[75.98683,36.79176],[76.10597,36.63247],[76.23607,36.60585],[76.32278,36.53099],[76.41846,36.51044],[76.53184,36.63383],[76.60481,36.60809],[76.63455,36.54042],[76.58812,36.39426],[76.7322,36.38119],[76.85807,36.3048],[76.97991,36.03679],[77.21745,35.915],[77.40022,35.91404],[77.58444,35.81635],[77.71002,35.58765],[77.85966,35.73879],[78.01498,35.76167],[78.59145,36.03968],[79.03608,36.07755],[79.31752,36.18093],[79.47794,36.14737],[79.5766,36.07022],[80.13017,36.06688],[80.22626,35.87093],[80.42508,35.75761],[80.49632,35.63728],[80.52225,35.42195],[80.21585,34.55999],[79.93501,34.40563],[79.85842,34.27689],[79.75231,34.21832],[79.66477,33.99829],[79.51537,33.85358],[79.39394,33.81122],[79.1794,33.82218],[79.20593,33.57807],[79.10815,33.44859],[79.08798,33.30069],[79.07536,33.28979],[78.96199,33.33793],[78.91252,33.38155],[78.89946,33.40381],[78.8522,33.40984],[78.83072,33.42195],[78.82674,33.43697],[78.80995,33.45696],[78.80461,33.48103],[78.75642,33.52399],[78.72755,33.56289],[78.72658,33.5713],[78.73437,33.58018],[78.73452,33.60321],[78.74595,33.61901],[78.71602,33.61608],[78.69022,33.63645],[78.69052,33.64889],[78.70707,33.66763],[78.73764,33.68284],[78.76888,33.74207],[78.75723,33.75603],[78.75692,33.77253],[78.74732,33.784],[78.75805,33.83505],[78.74439,33.88518],[78.75512,33.89485],[78.75589,33.90803],[78.72765,33.91446],[78.72116,33.92262],[78.72841,33.94362],[78.73401,33.99801],[78.69676,34.01849],[78.6762,34.01736],[78.65119,34.02733],[78.64669,34.05594],[78.65962,34.06535],[78.65056,34.07361],[78.655,34.08776],[78.66883,34.09863],[78.67911,34.09573],[78.68467,34.08719],[78.69033,34.09703],[78.70031,34.1011],[78.74305,34.09927],[78.77879,34.12519],[78.79244,34.14418],[78.82776,34.13327],[78.83721,34.14762],[78.85008,34.14913],[78.85319,34.16442],[78.86066,34.1723],[78.87614,34.17122],[78.89251,34.15491],[78.91826,34.15948],[78.917,34.17448],[78.93471,34.22195],[78.9533,34.23925],[78.96304,34.28254],[78.97644,34.29931],[78.97417,34.31873],[79.0346,34.32715],[78.9688,34.35573],[78.95767,34.3683],[78.9567,34.38054],[78.95098,34.38226],[78.93876,34.37564],[78.93085,34.36034],[78.91363,34.35826],[78.90633,34.34789],[78.88471,34.3529],[78.86173,34.37561],[78.86966,34.39177],[78.84742,34.40921],[78.82243,34.41154],[78.80073,34.42958],[78.78341,34.43478],[78.76365,34.4326],[78.73794,34.44762],[78.73228,34.46146],[78.74826,34.46866],[78.74938,34.47839],[78.7107,34.49784],[78.70352,34.5199],[78.6842,34.51996],[78.63612,34.53549],[78.61423,34.53206],[78.60023,34.52291],[78.59252,34.50187],[78.57832,34.49775],[78.55342,34.50874],[78.54912,34.52091],[78.55379,34.54613],[78.54509,34.5646],[78.4863,34.57241],[78.47829,34.56203],[78.46249,34.56143],[78.44959,34.5376],[78.43466,34.53505],[78.41992,34.55833],[78.42439,34.57438],[78.41847,34.58798],[78.3817,34.60016],[78.33547,34.59671],[78.32389,34.60533],[78.28694,34.60916],[78.26743,34.62551],[78.25506,34.66124],[78.27013,34.6795],[78.2669,34.6947],[78.23751,34.70769],[78.20729,34.71301],[78.19541,34.73441],[78.19806,34.75696],[78.20773,34.77398],[78.21948,34.77927],[78.22466,34.80153],[78.21876,34.81239],[78.22667,34.84118],[78.22125,34.85335],[78.2287,34.87552],[78.22212,34.88213],[78.19868,34.88638],[78.19753,34.90132],[78.16703,34.93528],[78.17019,34.94583],[78.19548,34.95858],[78.19552,34.96679],[78.17428,34.97957],[78.1539,34.98308],[78.13704,35.00611],[78.10826,35.02908],[78.10856,35.03956],[78.12686,35.05564],[78.13436,35.07207],[78.12509,35.09392],[78.10849,35.10084],[78.10548,35.1121],[78.09578,35.11814],[78.0921,35.13605],[78.09588,35.16124],[78.08489,35.16078],[78.08137,35.16962],[78.06538,35.16716],[78.05086,35.17269],[78.0337,35.19496],[78.00977,35.21118],[77.99623,35.23919],[78.00437,35.27506],[78.00747,35.36511],[78.03611,35.38243],[78.05399,35.40911],[78.09437,35.43434],[78.10329,35.47136],[78.11736,35.48568],[78.09888,35.49233],[78.06674,35.48],[78.04809,35.48345],[78.0385,35.46513],[78.02525,35.46187],[78.00073,35.48482],[77.97481,35.48809],[77.97033,35.47537],[77.9473,35.47183],[77.92758,35.48702],[77.92402,35.47041],[77.91087,35.45523],[77.87623,35.47581],[77.77335,35.49194],[77.7503,35.48787],[77.69202,35.45611],[77.66171,35.45118],[77.51866,35.4705],[77.50474,35.47859],[77.44118,35.45494],[77.42177,35.46334],[77.376,35.46857],[77.3636,35.48872],[77.35458,35.48657],[77.33712,35.49624],[77.32888,35.5118],[77.33095,35.52093],[77.3042,35.53769],[77.27488,35.5294],[77.26528,35.53254],[77.25248,35.52427],[77.20912,35.51348],[77.18991,35.5137],[77.16619,35.52907],[77.14542,35.53262],[77.1325,35.54546],[77.10827,35.55707],[77.0902,35.55887],[77.06252,35.59005],[77.02679,35.59354],[76.99883,35.60379],[76.98591,35.59169],[76.95565,35.5889],[76.92859,35.6033],[76.8956,35.61222],[76.89247,35.62062],[76.8546,35.64848],[76.84756,35.66462],[76.81462,35.66231],[76.78585,35.65415],[76.78891,35.64251],[76.7847,35.63604],[76.76189,35.63186],[76.79343,35.5997],[76.80112,35.58277],[76.79589,35.57317],[76.77947,35.57122],[76.77072,35.5572],[76.7562,35.55056],[76.76017,35.53254],[76.76722,35.52324],[76.79003,35.52554],[76.80175,35.52065],[76.7989,35.49678],[76.80966,35.48788],[76.82162,35.46463],[76.84426,35.44653],[76.84844,35.42989],[76.8422,35.42014],[76.85407,35.40375],[76.88492,35.39295],[76.90428,35.39622],[76.91747,35.40812],[76.94212,35.40344],[76.96013,35.38681],[76.96272,35.36865],[76.98465,35.36684],[76.99196,35.361],[76.98879,35.34435],[76.99694,35.32893],[76.99459,35.31886],[77.01716,35.30814],[77.02729,35.2965],[77.02342,35.28932],[77.00611,35.28464],[76.99954,35.26463],[76.98345,35.25681],[77.01053,35.23519],[76.99989,35.21286],[77.01933,35.19021],[77.04488,35.18919],[77.09172,35.17289],[77.0935,35.15255],[77.07823,35.1264],[77.0882,35.11889],[77.0875,35.10389],[77.11673,35.09339],[77.12712,35.06362],[77.12246,35.04956],[77.1125,35.04218],[77.08763,35.03644],[77.0755,35.04449],[77.05082,35.04422],[77.04089,35.03212],[77.02063,35.02933],[77.01538,35.02041],[77.00081,35.01346],[76.96483,35.01078],[76.9445,35.00204],[76.94553,34.98063],[76.9225,34.94267],[76.90038,34.91945],[76.88772,34.9213],[76.8508,34.94198],[76.83816,34.94039],[76.82718,34.94674],[76.79059,34.94387],[76.7802,34.92842],[76.76781,34.92452],[76.76368,34.91324],[76.76808,34.89703],[76.75233,34.88577],[76.75545,34.87572],[76.74974,34.8582],[76.75395,34.84069],[76.74838,34.82238],[76.73913,34.81556],[76.74291,34.80277],[76.70813,34.78969],[76.71077,34.77649],[76.70327,34.74821],[76.69076,34.73906],[76.64095,34.72731],[76.62503,34.75119],[76.61119,34.73877],[76.57977,34.7437],[76.55882,34.75661],[76.52885,34.759],[76.51076,34.78211],[76.48786,34.78768],[76.46637,34.77778],[76.45896,34.76297],[76.45098,34.75908],[76.44786,34.7453],[76.42218,34.73124],[76.41138,34.73432],[76.38748,34.72621],[76.36187,34.72613],[76.32896,34.71266],[76.26854,34.71341],[76.27609,34.69678],[76.2574,34.68361],[76.25632,34.66839],[76.18867,34.65122],[76.16476,34.62612],[76.11339,34.63283],[76.09633,34.64266],[76.09345,34.65628],[76.05972,34.68117],[76.03505,34.67871],[75.99225,34.64012],[75.95489,34.62647],[75.89719,34.57686],[75.83949,34.55006],[75.78484,34.50672],[75.69767,34.51895],[75.66671,34.53288],[75.54003,34.53219],[75.5126,34.54785],[75.48076,34.52672],[75.42525,34.53782],[75.40824,34.54958],[75.39702,34.54038],[75.36405,34.53106],[75.34048,34.5564],[75.31619,34.55897],[75.29638,34.5805],[75.2439,34.59588],[75.24083,34.60438],[75.24636,34.61887],[75.25264,34.62527],[75.26088,34.62451],[75.26174,34.6306],[75.18672,34.64145],[75.17563,34.63701],[75.15792,34.64995],[75.12015,34.64074],[75.08912,34.64651],[75.06415,34.63208],[75.03615,34.62892],[75.02461,34.62251],[74.99429,34.64108],[74.98113,34.63941],[74.93396,34.66582],[74.88877,34.66782],[74.87159,34.67455],[74.84112,34.66642],[74.72917,34.67439],[74.64777,34.69967],[74.59979,34.73213],[74.57709,34.75513],[74.50459,34.76274],[74.4822,34.77079],[74.47686,34.76437],[74.46698,34.76446],[74.44906,34.77522],[74.43429,34.76618],[74.39379,34.77857],[74.34453,34.77991],[74.31043,34.77402],[74.24513,34.72113],[74.21187,34.71059],[74.16428,34.68334],[74.15184,34.66841],[74.15458,34.6599],[74.14743,34.65224],[74.12343,34.6526],[74.10934,34.65951],[74.10336,34.66946],[74.0928,34.66231],[74.07144,34.66224],[74.04499,34.66569],[74.0273,34.67473],[73.97329,34.67819],[73.96292,34.66866],[73.95725,34.65702],[73.95871,34.64475],[73.94019,34.64039],[73.93797,34.60845],[73.96021,34.59931],[73.96011,34.58903],[73.96666,34.58142],[73.96268,34.56368],[73.94874,34.54792],[73.91476,34.52654],[73.91696,34.51443],[73.9005,34.50454],[73.89838,34.48993],[73.88919,34.47834],[73.89549,34.46564],[73.89352,34.44942],[73.84317,34.41947],[73.81029,34.41922],[73.76462,34.37772],[73.75839,34.36816],[73.75931,34.35209],[73.77615,34.33965],[73.79104,34.34314],[73.79916,34.35184],[73.81515,34.35147],[73.82106,34.34664],[73.82027,34.33803],[73.8547,34.33126],[73.86377,34.34121],[73.88375,34.3399],[73.90272,34.35792],[73.91668,34.35763],[73.94541,34.3386],[73.93605,34.31901],[73.94579,34.31747],[73.95038,34.31059],[73.94953,34.29678],[73.94292,34.28968],[73.95059,34.28236],[73.97756,34.28111],[73.99659,34.27334],[73.99694,34.26123],[74.01579,34.22388],[74.00519,34.20526],[74.01629,34.20034],[74.0183,34.19245],[74.00236,34.17506],[73.97122,34.16394],[73.9703,34.14832],[73.95919,34.14467],[73.95077,34.13023],[73.93404,34.1236],[73.93039,34.09816],[73.91201,34.09804],[73.91427,34.08047],[73.90375,34.05934],[73.92605,34.04224],[73.93073,34.02927],[73.98497,34.0196],[74.00024,34.02745],[74.01744,34.04602],[74.05322,34.03759],[74.13238,34.05392],[74.14774,34.05068],[74.16581,34.03449],[74.17883,34.03829],[74.19991,34.02365],[74.20773,34.02393],[74.21613,34.03286],[74.23414,34.03022],[74.24372,34.01805],[74.26115,34.00923],[74.27266,33.98897],[74.27006,33.97934],[74.28307,33.97253],[74.27779,33.95625],[74.28889,33.9357],[74.28161,33.91894],[74.28818,33.8999],[74.28088,33.8869],[74.25613,33.88],[74.19147,33.83224],[74.1147,33.8159],[74.08882,33.82088],[74.0631,33.81731],[74.05065,33.80037],[74.04054,33.7979],[74.01597,33.77212],[74.01732,33.75093],[74.00986,33.74016],[73.9892,33.73405],[73.96837,33.71979],[73.97028,33.71338],[73.98661,33.71087],[73.98776,33.69654],[73.99663,33.68591],[73.99181,33.67321],[74.00023,33.6534],[73.9889,33.64267],[74.03021,33.59981],[74.03722,33.58361],[74.08308,33.59131],[74.09766,33.57932],[74.10942,33.58166],[74.14445,33.56363],[74.16553,33.53707],[74.16445,33.51546],[74.17001,33.50494],[74.19948,33.47893],[74.18468,33.43512],[74.18593,33.41774],[74.19537,33.40921],[74.19359,33.3839],[74.1866,33.36803],[74.17636,33.36006],[74.17204,33.33388],[74.13048,33.29806],[74.11056,33.2921],[74.09383,33.27771],[74.04928,33.2745],[74.02252,33.25856],[74.02084,33.25055],[74.0101,33.24258],[74.01428,33.22199],[74.03567,33.20506],[74.04758,33.20935],[74.07195,33.20202],[74.09048,33.17931],[74.1337,33.16513],[74.1692,33.126],[74.16807,33.11143],[74.1888,33.09892],[74.18836,33.08612],[74.17974,33.07904],[74.21096,33.07514],[74.23929,33.05792],[74.27939,33.04458],[74.32902,33.03639],[74.32722,33.00772],[74.34643,32.95263],[74.32162,32.93348],[74.33061,32.92624],[74.37505,32.92537],[74.41994,32.90251],[74.42688,32.88635],[74.42088,32.86908],[74.42633,32.84227],[74.44349,32.82715],[74.45375,32.79918],[74.46518,32.79324],[74.46837,32.78312],[74.49073,32.77223],[74.51342,32.77085],[74.5211,32.75237],[74.57238,32.75942],[74.6088,32.77539],[74.62995,32.82579],[74.65056,32.84375],[74.67326,32.84742],[74.69033,32.83608],[74.69579,32.80671],[74.65676,32.7221],[74.66282,32.63893],[74.65953,32.6324],[74.60804,32.57029],[74.27159,32.58025],[74.1519,32.67557],[73.54089,32.92872],[73.41922,33.11054],[73.366,33.10244],[73.31861,33.37769]]]}}]}
