{"type":"FeatureCollection","features":[{"type":"Feature","properties":{"kind":"corridor"},"geometry":{"type":"Polygon","coordinates":[[[72.4739,35.8736],[72.4607,35.9603],[72.4932,36.015],[72.459,36.0605],[72.4626,36.1007],[72.4871,36.1478],[72.4815,36.1936],[72.5274,36.2726],[72.5895,36.3152],[72.6502,36.3121],[72.7316,36.3493],[72.8097,36.4101],[72.8134,36.4656],[72.8723,36.5013],[72.9194,36.509],[72.9316,36.5415],[73.0012,36.5721],[73.0253,36.603],[73.0103,36.7093],[73.0316,36.7395],[73.0712,36.75],[73.1048,36.7388],[73.166,36.7733],[73.2143,36.7555],[73.2784,36.7548],[73.3396,36.7834],[73.4228,36.7924],[73.5412,36.7642],[73.5984,36.7691],[73.6631,36.742],[73.688,36.7582],[73.7554,36.7567],[73.6704,36.7984],[73.611,36.8672],[73.6159,36.9275],[73.6416,36.9543],[73.6969,36.9638],[73.8773,36.9443],[73.9492,36.9229],[73.9934,36.8829],[74.0404,36.8755],[74.0844,36.8904],[74.1049,36.9346],[74.1407,36.9583],[74.2449,36.9482],[74.3927,37.0383],[74.5108,37.0459],[74.544,37.0971],[74.701,37.1377],[74.7421,37.127],[74.7657,37.0907],[74.8729,37.0762],[74.9208,36.9953],[75.0109,37.0405],[75.0946,37.0137],[75.1504,37.0722],[75.2004,37.0987],[75.3144,37.1134],[75.3667,37.1053],[75.3975,37.0767],[75.4077,37.0313],[75.4726,36.9906],[75.4794,36.9352],[75.5142,36.861],[75.6575,36.8069],[75.8066,36.627],[75.9652,36.5582],[76.0993,36.5276],[76.2007,36.4473],[76.2834,36.4088],[76.3772,36.4148],[76.4869,36.3366],[76.5221,36.2597],[76.5987,36.2292],[76.6511,36.2469],[76.6851,36.235],[76.7528,36.1747],[76.7742,36.1268],[76.8204,36.1104],[76.8633,36.0666],[76.866,36.008],[76.8096,35.9562],[76.8565,35.8868],[76.9509,35.8392],[77.0204,35.8252],[77.1369,35.8441],[77.2067,35.8103],[77.2588,35.7645],[77.3609,35.7682],[77.4061,35.751],[77.4897,35.6789],[77.4996,35.6278],[77.5284,35.5961],[77.5402,35.5258],[77.6141,35.5181],[77.6714,35.5281],[77.6947,35.5561],[77.7372,35.5705],[77.7875,35.5464],[77.8399,35.5537],[77.8812,35.5282],[77.9053,35.5713],[77.9004,35.6213],[77.9346,35.6502],[78.0672,35.6302],[78.1087,35.6039],[78.1252,35.6567],[78.1815,35.7081],[78.2179,35.7147],[78.2318,35.7496],[78.29,35.7771],[78.3602,35.7768],[78.4154,35.8274],[78.5274,35.8188],[78.6588,35.9021],[78.7823,35.9182],[78.8334,35.9057],[78.9719,35.9396],[79.0078,35.9342],[79.0547,35.895],[79.137,35.8854],[79.1517,35.8974],[79.1569,35.9676],[79.1971,36.0124],[79.2477,36.0341],[79.3563,36.0412],[79.4203,36.0395],[79.4481,36.0236],[79.4828,35.9357],[79.5668,35.9217],[79.7768,35.8436],[79.875,35.828],[79.9624,35.8744],[80.0412,35.8706],[80.095,35.8243],[80.1711,35.6985],[80.2388,35.683],[80.3489,35.626],[80.4032,35.4582],[80.3551,35.396],[80.3533,35.3388],[80.295,35.1862],[80.2442,35.1197],[80.2426,34.9935],[80.1811,34.8538],[80.1313,34.7896],[80.1276,34.701],[80.1055,34.6571],[79.9543,34.6121],[79.8897,34.6209],[79.8508,34.5889],[79.8471,34.5603],[79.8781,34.5246],[79.8738,34.4765],[79.8205,34.4239],[79.7379,34.4129],[79.6162,34.4296],[79.6277,34.3294],[79.6552,34.2794],[79.6497,34.2283],[79.6078,34.1742],[79.551,34.1434],[79.542,34.0942],[79.4896,34.0488],[79.4941,33.9976],[79.4499,33.9591],[79.4031,33.9507],[79.3513,33.9785],[79.2732,33.9788],[79.2313,33.994],[79.1886,33.9938],[79.1105,33.9595],[79.0126,33.9826],[78.9837,33.9655],[79.0513,33.8339],[79.1166,33.7891],[79.122,33.7593],[79.1058,33.729],[79.1338,33.7003],[79.1584,33.6161],[79.1187,33.5672],[78.9858,33.5649],[79.0014,33.5189],[78.9854,33.4606],[79.0062,33.4068],[79.0277,33.376],[79.1144,33.3398],[79.2205,33.3457],[79.311,33.3236],[79.3689,33.3303],[79.4918,33.2884],[79.5087,33.2247],[79.4752,33.1434],[79.429,33.0883],[79.4454,33.0408],[79.4294,33.0023],[79.5903,32.815],[79.6397,32.7905],[79.6678,32.7489],[79.6603,32.6988],[79.4555,32.4793],[79.3699,32.4735],[79.3256,32.5154],[79.1919,32.4256],[79.1357,32.3429],[79.1,32.328],[79.0416,32.3338],[78.9777,32.2865],[78.9352,32.2968],[78.7566,32.4191],[78.7023,32.5569],[78.7098,32.6067],[78.688,32.6057],[78.6257,32.5448],[78.5842,32.545],[78.5573,32.5613],[78.5057,32.5356],[78.5249,32.4758],[78.5746,32.4505],[78.5918,32.4147],[78.5421,32.3284],[78.5422,32.2971],[78.5927,32.2912],[78.6513,32.2526],[78.6721,32.2174],[78.667,32.1592],[78.7019,32.143],[78.7877,32.0475],[78.838,32.0194],[78.8361,31.9302],[78.7784,31.7947],[78.7974,31.7706],[78.7983,31.731],[78.8338,31.7209],[78.9098,31.6228],[78.8935,31.5699],[78.8166,31.5116],[78.8653,31.4712],[78.8762,31.4225],[78.9188,31.3666],[78.9578,31.3873],[79.0079,31.483],[79.0428,31.5081],[79.0781,31.5102],[79.1623,31.4745],[79.2434,31.3891],[79.2962,31.3558],[79.3628,31.1711],[79.44,31.1427],[79.4806,31.083],[79.5634,31.0587],[79.6048,30.9989],[79.6489,31.0305],[79.6985,31.028],[79.7411,31.0563],[79.8951,31.0165],[79.9606,30.9385],[80.0965,30.8771],[80.1234,30.8451],[80.1636,30.8551],[80.213,30.8435],[80.2913,30.7849],[80.3084,30.7302],[80.2766,30.6549],[80.2816,30.621],[80.3446,30.6038],[80.3908,30.5709],[80.4327,30.5726],[80.5418,30.518],[80.5706,30.5299],[80.6221,30.5238],[80.7863,30.4335],[80.8532,30.3573],[81.033,30.3067],[81.0878,30.2637],[81.1046,30.2158],[81.0804,30.1671],[81.0489,30.1493],[80.9349,30.1305],[80.925,30.1014],[80.8402,30.0459],[80.7829,29.9668],[80.6989,29.9123],[80.6312,29.9087],[80.6024,29.825],[80.5235,29.7532],[80.4537,29.7498],[80.4334,29.7203],[80.4791,29.629],[80.4575,29.5698],[80.3295,29.4106],[80.3355,29.3704],[80.365,29.3432],[80.3768,29.304],[80.3507,29.1851],[80.3066,29.1015],[80.2472,29.0704],[80.1949,29.0742],[80.1907,28.9918],[80.1177,28.9057],[80.1229,28.8411],[80.0938,28.8394],[80.0895,28.8502],[80.0165,28.8099],[80.0004,28.9131],[80.0686,29.0272],[80.094,29.1264],[80.1403,29.1708],[80.1856,29.1866],[80.1956,29.2423],[80.2422,29.2705],[80.2478,29.2965],[80.1884,29.3923],[80.1846,29.4498],[80.2015,29.4798],[80.2831,29.5413],[80.298,29.5848],[80.3475,29.613],[80.3078,29.7207],[80.312,29.7673],[80.379,29.8382],[80.4595,29.8517],[80.4891,29.872],[80.5617,29.9939],[80.6056,30.0118],[80.6518,30.0114],[80.6983,30.0467],[80.7123,30.0766],[80.8114,30.1559],[80.8101,30.1808],[80.8602,30.2492],[80.7859,30.2764],[80.7146,30.3544],[80.5931,30.4186],[80.5321,30.4001],[80.4719,30.4387],[80.3582,30.4713],[80.2862,30.5168],[80.2239,30.5186],[80.1728,30.5604],[80.1428,30.6443],[80.1395,30.6829],[80.1663,30.7213],[80.1528,30.7357],[80.0965,30.7314],[79.9561,30.8344],[79.8963,30.8415],[79.8376,30.8975],[79.8304,30.9247],[79.765,30.9393],[79.5963,30.8836],[79.5132,30.9234],[79.4774,30.984],[79.4285,30.979],[79.3876,30.9924],[79.3495,31.0693],[79.2922,31.0906],[79.2609,31.1194],[79.2435,31.192],[79.1957,31.2299],[79.1966,31.2798],[79.105,31.3879],[79.0732,31.3695],[79.043,31.3159],[79.0016,31.2956],[78.9708,31.2155],[78.9174,31.2046],[78.8596,31.2261],[78.8016,31.303],[78.8001,31.3407],[78.7386,31.3758],[78.7488,31.4286],[78.6938,31.4467],[78.6717,31.5033],[78.6934,31.5623],[78.7722,31.6077],[78.7025,31.6626],[78.6516,31.7868],[78.7232,31.9621],[78.6231,32.0617],[78.5725,32.0839],[78.5389,32.148],[78.5548,32.1948],[78.4575,32.191],[78.4096,32.2182],[78.4267,32.3525],[78.4506,32.3923],[78.349,32.5246],[78.3756,32.5855],[78.4176,32.6179],[78.497,32.6518],[78.5899,32.6592],[78.7081,32.7323],[78.7622,32.7412],[78.8072,32.7047],[78.8079,32.6621],[78.8391,32.607],[78.8216,32.5575],[78.8555,32.4799],[78.9642,32.4107],[79.0624,32.4348],[79.0884,32.5035],[79.1548,32.5213],[79.2253,32.5665],[79.2874,32.6329],[79.3401,32.6324],[79.4122,32.5957],[79.5325,32.7234],[79.4904,32.758],[79.3988,32.8825],[79.324,32.9347],[79.2688,32.999],[79.2754,33.0383],[79.316,33.0612],[79.3247,33.1337],[79.3893,33.2234],[79.3046,33.224],[79.2185,33.2465],[79.0873,33.2428],[78.9291,33.3101],[78.8708,33.4414],[78.8818,33.5203],[78.8517,33.5564],[78.8465,33.6345],[78.8974,33.6776],[78.9713,33.6635],[78.9596,33.7145],[78.9741,33.7476],[78.8674,33.9371],[78.8631,33.9796],[78.9069,34.0432],[79.0036,34.083],[79.0908,34.0605],[79.1148,34.0957],[79.1642,34.1072],[79.3626,34.077],[79.3824,34.1129],[79.4337,34.1379],[79.4394,34.2026],[79.4585,34.2263],[79.5368,34.2559],[79.5056,34.3648],[79.4693,34.4171],[79.4643,34.4691],[79.4829,34.5002],[79.5856,34.535],[79.716,34.5193],[79.7187,34.616],[79.7484,34.6537],[79.8576,34.7211],[79.9412,34.7178],[80.011,34.7327],[80.024,34.8294],[80.0759,34.8966],[80.1288,35.0159],[80.1335,35.1538],[80.1868,35.2236],[80.239,35.3593],[80.2451,35.4368],[80.2812,35.4734],[80.2581,35.5613],[80.0909,35.6192],[79.9905,35.7773],[79.9031,35.7258],[79.7423,35.748],[79.5162,35.832],[79.4048,35.8548],[79.3612,35.9423],[79.2705,35.9354],[79.2673,35.8604],[79.1751,35.7895],[79.0244,35.7987],[78.9673,35.829],[78.8377,35.8067],[78.7762,35.8187],[78.7126,35.8096],[78.549,35.7147],[78.4637,35.7268],[78.4399,35.697],[78.3408,35.6712],[78.334,35.6382],[78.2953,35.6049],[78.2462,35.5972],[78.22,35.5697],[78.2097,35.5202],[78.1743,35.497],[78.1107,35.4923],[78.014,35.5337],[78.0042,35.5187],[78.044,35.45],[78.0367,35.4251],[78.0025,35.4011],[77.8906,35.4151],[77.8186,35.4438],[77.6787,35.4167],[77.5132,35.4277],[77.4558,35.4111],[77.371,35.4259],[77.3179,35.4558],[77.2718,35.5247],[77.3021,35.5728],[77.3836,35.5903],[77.3829,35.6138],[77.3458,35.6569],[77.2253,35.6611],[77.1518,35.6868],[77.0976,35.7429],[77.0058,35.7256],[76.9105,35.7444],[76.7773,35.8074],[76.6761,35.9411],[76.6837,35.9882],[76.7302,36.0347],[76.675,36.0664],[76.6553,36.1178],[76.6376,36.1321],[76.5475,36.1391],[76.4427,36.1825],[76.3817,36.2416],[76.3859,36.2829],[76.3332,36.3166],[76.2477,36.312],[76.1373,36.3625],[76.0447,36.4401],[75.9293,36.464],[75.7699,36.5253],[75.6935,36.5836],[75.5761,36.7354],[75.4175,36.7998],[75.3974,36.8561],[75.3541,36.8866],[75.353,36.9285],[75.2988,36.9738],[75.2907,37.0117],[75.2353,37.0035],[75.1428,36.9215],[75.0944,36.9117],[75.0222,36.9345],[74.9186,36.8709],[74.8734,36.8831],[74.7848,36.9819],[74.7267,36.9738],[74.6702,37.0226],[74.6381,37.0138],[74.6217,36.9454],[74.5772,36.9097],[74.531,36.9126],[74.486,36.9471],[74.4511,36.948],[74.2759,36.8498],[74.1949,36.8553],[74.1587,36.8013],[74.0649,36.7639],[73.9658,36.7821],[73.8811,36.8272],[73.9282,36.7802],[73.9431,36.7363],[73.9267,36.6791],[73.8804,36.6525],[73.8088,36.6626],[73.7368,36.6588],[73.6941,36.638],[73.6127,36.6415],[73.4123,36.6851],[73.309,36.6562],[73.1657,36.6545],[73.1434,36.6409],[73.1554,36.6022],[73.1297,36.5463],[73.0865,36.4931],[73.0448,36.4798],[73.0126,36.4167],[72.9316,36.4052],[72.9021,36.3389],[72.7595,36.2485],[72.7237,36.207],[72.6855,36.1935],[72.6297,36.2121],[72.6047,36.1797],[72.6172,36.1248],[72.5854,36.0922],[72.628,36.0631],[72.6413,36.0107],[72.5913,35.9382],[72.6189,35.9095],[72.6795,35.8849],[72.7092,35.9003],[72.7533,35.8963],[72.8134,35.9309],[72.9051,35.9218],[72.9424,35.8963],[73.0986,35.9253],[73.2016,35.8518],[73.1852,35.7436],[73.2976,35.6673],[73.388,35.6421],[73.4251,35.6126],[73.4891,35.6204],[73.5732,35.6017],[73.638,35.6178],[73.8078,35.5656],[73.8358,35.5332],[73.8503,35.4529],[73.8301,35.4168],[73.7759,35.3901],[73.7517,35.3528],[73.7802,35.287],[73.9292,35.256],[73.9747,35.2302],[74.01,35.2327],[74.0573,35.2002],[74.1476,35.1878],[74.1919,35.1125],[74.182,35.076],[74.1491,35.0562],[74.1668,35.026],[74.1592,34.99],[74.1239,34.9622],[74.1213,34.9103],[74.0641,34.8363],[74.0153,34.8206],[73.9365,34.7644],[73.8893,34.7663],[73.7731,34.7337],[73.7396,34.6819],[73.7446,34.6215],[73.6838,34.5215],[73.6401,34.5111],[73.5725,34.5342],[73.5009,34.5233],[73.4944,34.5093],[73.4701,34.3798],[73.533,34.3114],[73.5764,34.0149],[73.6512,33.897],[73.6249,33.7946],[73.6502,33.7668],[73.6614,33.7146],[73.6315,33.6574],[73.6784,33.5968],[73.699,33.5193],[73.678,33.4882],[73.688,33.4342],[73.6355,33.3775],[73.6706,33.2718],[73.7217,33.2211],[73.7112,33.1327],[73.7873,33.0981],[73.8148,33.0522],[73.912,33.051],[73.9861,33.0331],[74.1096,32.9543],[74.214,32.9294],[74.2656,32.8921],[74.3431,32.8661],[74.3748,32.8197],[74.4567,32.8371],[74.541,32.8065],[74.5765,32.8089],[74.6258,32.8746],[74.7328,32.8853],[74.7605,32.8562],[74.7636,32.8226],[74.7175,32.711],[74.7474,32.6876],[74.753,32.654],[74.7155,32.6009],[74.749,32.5302],[74.8172,32.5474],[74.8777,32.5424],[74.9706,32.5113],[74.9973,32.5391],[75.0385,32.5457],[75.1229,32.5237],[75.1724,32.4736],[75.2341,32.461],[75.3724,32.3693],[75.3851,32.326],[75.3286,32.3476],[75.3408,32.2778],[75.3143,32.278],[75.2044,32.3457],[75.0959,32.3697],[75.0542,32.4274],[75.0031,32.403],[74.9516,32.398],[74.8437,32.4385],[74.7172,32.4271],[74.6594,32.4437],[74.6285,32.4741],[74.5844,32.5874],[74.5855,32.634],[74.6078,32.6643],[74.5961,32.7009],[74.5023,32.6967],[74.442,32.7316],[74.3875,32.7138],[74.3232,32.7256],[74.2584,32.784],[74.1933,32.8047],[74.1539,32.8391],[73.9802,32.8888],[73.9293,32.9345],[73.8912,32.9484],[73.8213,32.9191],[73.768,32.9212],[73.7456,32.9353],[73.6901,33.0335],[73.6213,33.0362],[73.5852,33.0633],[73.573,33.1382],[73.5907,33.1749],[73.5069,33.3659],[73.5676,33.5502],[73.524,33.5846],[73.509,33.6204],[73.5144,33.6889],[73.5429,33.7228],[73.5017,33.7813],[73.5298,33.8795],[73.4622,33.9808],[73.4359,34.2011],[73.3879,34.2964],[73.3533,34.3303],[73.3402,34.3872],[73.3681,34.4339],[73.3749,34.5352],[73.4018,34.5971],[73.4326,34.6171],[73.512,34.6226],[73.541,34.6376],[73.6107,34.6344],[73.6086,34.6978],[73.6854,34.8041],[73.7497,34.8417],[73.8898,34.867],[73.9789,34.9205],[74.0041,34.9602],[74.0086,35.0497],[74.029,35.0988],[73.9787,35.1233],[73.9413,35.1204],[73.8913,35.1606],[73.8483,35.1589],[73.7972,35.1882],[73.7364,35.1591],[73.6992,35.1674],[73.6557,35.2006],[73.6642,35.2629],[73.6403,35.301],[73.6377,35.3757],[73.6741,35.4396],[73.7245,35.4794],[73.6212,35.5092],[73.5552,35.4972],[73.4647,35.5187],[73.4027,35.5078],[73.3638,35.5171],[73.3324,35.5527],[73.2296,35.5867],[73.0858,35.6817],[73.0682,35.7209],[73.0768,35.8139],[73.0336,35.7978],[72.9883,35.8048],[72.9125,35.7898],[72.8397,35.818],[72.7811,35.7857],[72.7331,35.7905],[72.672,35.7742],[72.5468,35.8221],[72.4739,35.8736]]]}},{"type":"Feature","properties":{"kind":"corridor"},"geometry":{"type":"Polygon","coordinates":[[[87.9743,27.1796],[87.9589,27.2304],[87.9984,27.3384],[87.9858,27.3754],[88.0055,27.4414],[87.9906,27.5098],[88.0309,27.6045],[88.0927,27.6907],[88.1025,27.7497],[88.1287,27.7897],[88.1208,27.8316],[88.0904,27.8519],[88.0638,27.914],[88.0943,27.9878],[88.1262,28.0106],[88.2679,28.0116],[88.3827,28.039],[88.4266,28.057],[88.4676,28.0967],[88.5031,28.1029],[88.6007,28.1775],[88.6594,28.1658],[88.6982,28.127],[88.7705,28.1238],[88.803,28.1072],[88.8811,28.0443],[88.8981,27.9631],[88.9384,27.893],[88.9418,27.844],[88.9115,27.7733],[88.9209,27.7395],[88.8999,27.649],[88.8408,27.5542],[88.8392,27.4769],[88.863,27.436],[88.9055,27.4163],[88.9705,27.3475],[88.9656,27.2722],[88.9468,27.2413],[88.9057,27.2177],[88.8576,27.2147],[88.8367,27.1599],[88.7845,27.1052],[88.7563,27.0984],[88.7531,27.1229],[88.7717,27.1346],[88.7333,27.1486],[88.7154,27.1257],[88.6946,27.162],[88.7466,27.2279],[88.761,27.2803],[88.8399,27.3126],[88.7685,27.3703],[88.7328,27.4273],[88.7283,27.51],[88.7081,27.5611],[88.7867,27.6886],[88.8008,27.8237],[88.8251,27.8565],[88.82,27.8823],[88.7861,27.9083],[88.7861,27.9793],[88.7335,28.0248],[88.6646,28.0233],[88.6253,28.045],[88.5696,27.9893],[88.5125,27.988],[88.4277,27.9356],[88.3641,27.9345],[88.2583,27.8933],[88.224,27.896],[88.2566,27.8526],[88.2525,27.7849],[88.2077,27.7041],[88.1946,27.6433],[88.122,27.5304],[88.1104,27.4879],[88.1307,27.4288],[88.1019,27.3849],[88.122,27.328],[88.0538,27.1834],[88.0291,27.1714],[87.998,27.179],[88.0248,27.2148],[87.9869,27.2079],[87.9936,27.1974],[87.9743,27.1796]]]}},{"type":"Feature","properties":{"kind":"corridor"},"geometry":{"type":"Polygon","coordinates":[[[91.9047,27.4225],[91.7503,27.4176],[91.6265,27.4393],[91.5336,27.5325],[91.5127,27.5697],[91.5091,27.6495],[91.5244,27.6847],[91.5746,27.7299],[91.5829,27.7626],[91.5274,27.7829],[91.5004,27.8331],[91.5,27.8652],[91.5279,27.8988],[91.6184,27.9114],[91.6842,27.8988],[91.7355,27.8546],[91.8447,27.8606],[91.9177,27.7803],[91.9863,27.8202],[92.0336,27.8157],[92.2096,27.9183],[92.2671,27.9215],[92.3135,27.9068],[92.3419,27.8468],[92.3684,27.8671],[92.4433,27.8766],[92.4848,27.9006],[92.5469,27.8949],[92.5944,27.9404],[92.6323,27.9483],[92.6788,27.9972],[92.6295,28.0268],[92.6105,28.0616],[92.6266,28.134],[92.6541,28.1667],[92.7886,28.2547],[92.8276,28.2592],[92.8589,28.2426],[92.8968,28.2837],[92.9666,28.3081],[92.9983,28.355],[93.0781,28.3569],[93.1256,28.3777],[93.1672,28.3693],[93.1285,28.4172],[93.1314,28.4583],[93.2291,28.5329],[93.2493,28.6159],[93.2984,28.6776],[93.4819,28.7338],[93.6162,28.7029],[93.7282,28.7329],[93.782,28.7245],[93.8549,28.7563],[93.9164,28.7312],[93.9598,28.8666],[94.116,28.9841],[94.1342,29.0466],[94.194,29.1294],[94.2581,29.1834],[94.3207,29.1964],[94.3393,29.223],[94.4139,29.2677],[94.5182,29.2629],[94.5384,29.3087],[94.6152,29.3887],[94.6533,29.3883],[94.727,29.3537],[94.8477,29.2246],[94.9313,29.2051],[94.992,29.2216],[95.1116,29.1873],[95.1441,29.1632],[95.2552,29.1586],[95.2899,29.1355],[95.2978,29.1111],[95.3944,29.0837],[95.4227,29.1003],[95.4298,29.1625],[95.4735,29.1911],[95.4847,29.2479],[95.5251,29.2654],[95.5497,29.3003],[95.6219,29.309],[95.7395,29.4],[95.7993,29.4064],[95.8424,29.4415],[95.9225,29.4376],[96.0251,29.5076],[96.1016,29.5071],[96.1914,29.4223],[96.2594,29.2917],[96.3258,29.3352],[96.3665,29.3411],[96.4054,29.3252],[96.4343,29.2732],[96.4289,29.2213],[96.3859,29.1465],[96.2485,29.1058],[96.2024,29.0572],[96.2251,29.0116],[96.3169,29.0787],[96.4123,29.0864],[96.5027,29.1225],[96.5439,29.1155],[96.5685,29.066],[96.5383,29.0075],[96.5621,28.9824],[96.5835,28.8939],[96.6609,28.7977],[96.6644,28.7556],[96.6418,28.7016],[96.5984,28.6641],[96.5409,28.6514],[96.5271,28.5988],[96.4129,28.5104],[96.4168,28.4714],[96.3857,28.4306],[96.3966,28.4246],[96.4484,28.4627],[96.492,28.4621],[96.5581,28.5005],[96.6588,28.5047],[96.7723,28.4546],[96.8102,28.4114],[96.9012,28.4269],[96.9942,28.3621],[97.066,28.3984],[97.1313,28.3909],[97.2023,28.3361],[97.3145,28.3083],[97.4035,28.2619],[97.4561,28.1996],[97.4494,28.1548],[97.3963,28.1323],[97.4685,28.012],[97.4367,27.9602],[97.4338,27.885],[97.4139,27.846],[97.3539,27.8295],[97.2853,27.8569],[97.1561,27.7435],[97.1241,27.6986],[97.0646,27.6925],[97.0258,27.6326],[96.9634,27.5984],[96.9852,27.5188],[96.9659,27.4716],[97.0124,27.4221],[97.0457,27.3543],[97.135,27.2654],[97.2184,27.1523],[97.2121,27.1018],[97.1773,27.0555],[97.139,27.0416],[97.0561,27.0415],[96.9512,27.1101],[96.8447,27.1388],[96.8029,27.1805],[96.8083,27.2373],[96.7582,27.3037],[96.6435,27.3102],[96.5302,27.2374],[96.4582,27.2529],[96.3903,27.2358],[96.3143,27.2399],[96.1323,27.184],[96.0712,27.147],[95.9845,27.0159],[95.8941,26.9679],[95.8316,26.9581],[95.7824,26.8598],[95.7334,26.8314],[95.6814,26.837],[95.636,26.7698],[95.5546,26.7694],[95.5274,26.7176],[95.4605,26.6585],[95.3153,26.6026],[95.236,26.6105],[95.2038,26.6448],[95.2106,26.694],[95.1856,26.7069],[95.1994,26.721],[95.253,26.7331],[95.297,26.7107],[95.3842,26.7415],[95.5018,26.8692],[95.5465,26.8847],[95.5752,26.8792],[95.6527,26.9507],[95.6976,26.9459],[95.7187,26.9993],[95.7712,27.0558],[95.8481,27.0633],[95.9019,27.0895],[95.9835,27.215],[96.0706,27.2695],[96.208,27.3248],[96.4466,27.3555],[96.5086,27.3496],[96.5882,27.4126],[96.7148,27.4207],[96.8332,27.3829],[96.9303,27.2881],[96.938,27.2124],[96.9831,27.2078],[97.0576,27.1739],[96.8523,27.4328],[96.867,27.5176],[96.8417,27.574],[96.8433,27.6232],[96.9104,27.7016],[96.9466,27.7113],[97.003,27.7821],[97.0589,27.7958],[97.2222,27.9426],[97.3179,27.9625],[97.3331,28.0036],[97.2854,28.0175],[97.2552,28.0685],[97.2727,28.1608],[97.3036,28.1965],[97.2694,28.217],[97.1557,28.2381],[97.0893,28.2988],[96.9927,28.2541],[96.9573,28.2618],[96.8726,28.3191],[96.7573,28.3185],[96.7227,28.3392],[96.7039,28.3762],[96.6339,28.4065],[96.5934,28.406],[96.5353,28.3693],[96.4831,28.3624],[96.4508,28.3014],[96.3922,28.2865],[96.3298,28.3295],[96.2884,28.3349],[96.2115,28.3745],[96.2043,28.4304],[96.2839,28.4871],[96.263,28.5229],[96.2762,28.5581],[96.3219,28.5991],[96.3521,28.6032],[96.4197,28.6489],[96.414,28.6905],[96.4293,28.712],[96.4891,28.7424],[96.5442,28.7509],[96.5533,28.7682],[96.4786,28.8567],[96.4694,28.9102],[96.4265,28.9398],[96.4093,28.9869],[96.3594,28.9871],[96.3297,28.9698],[96.2616,28.8967],[96.1924,28.8542],[96.1466,28.85],[96.1127,28.873],[96.0794,28.9318],[96.1117,28.9967],[96.0944,29.0295],[96.0545,29.0533],[96.0475,29.089],[96.0698,29.1193],[96.1432,29.1412],[96.1782,29.1884],[96.2067,29.2007],[96.1468,29.2609],[96.1202,29.3317],[96.0579,29.4039],[95.9523,29.3391],[95.8851,29.3431],[95.8491,29.312],[95.7757,29.2928],[95.6886,29.2292],[95.6213,29.2006],[95.5912,29.1746],[95.5762,29.1019],[95.5325,29.0819],[95.4875,29.0081],[95.4071,28.9812],[95.288,29.0111],[95.2435,29.0069],[95.2033,29.028],[95.1877,29.0587],[95.0925,29.071],[95.0576,29.0971],[95.0182,29.0809],[94.9401,29.1064],[94.9074,29.1032],[94.8627,29.1265],[94.7825,29.1168],[94.7494,29.1446],[94.7366,29.2015],[94.6595,29.2743],[94.5726,29.1753],[94.5182,29.1636],[94.4478,29.1692],[94.3882,29.1088],[94.3225,29.0972],[94.2666,29.0533],[94.2045,28.9231],[94.0566,28.8054],[94.0578,28.747],[93.9702,28.6274],[93.9333,28.6167],[93.8546,28.6488],[93.7967,28.6152],[93.736,28.6332],[93.6275,28.6044],[93.5033,28.6134],[93.3784,28.5954],[93.3289,28.4819],[93.2684,28.4374],[93.2785,28.3353],[93.257,28.2908],[93.218,28.2732],[93.0816,28.257],[93.0279,28.1881],[92.9837,28.1815],[92.9582,28.1955],[92.8796,28.1393],[92.8028,28.1345],[92.7325,28.0952],[92.7916,28.0198],[92.7905,27.9676],[92.7259,27.8905],[92.6472,27.8499],[92.5828,27.7809],[92.5438,27.7762],[92.5135,27.7919],[92.4779,27.7686],[92.4262,27.7692],[92.3095,27.7391],[92.2673,27.76],[92.2346,27.8203],[92.0869,27.7258],[92.0115,27.7183],[91.9401,27.6744],[91.8391,27.693],[91.7914,27.7566],[91.7003,27.7595],[91.6798,27.6801],[91.6305,27.6346],[91.6353,27.588],[91.6681,27.5485],[91.7107,27.5528],[91.7839,27.5212],[91.8525,27.5358],[91.9565,27.5137],[92.0342,27.5276],[92.0676,27.5028],[92.0951,27.4515],[92.1176,27.3493],[92.1697,27.314],[92.175,27.2571],[92.1266,27.2225],[92.0851,27.108],[92.134,27.058],[92.1737,26.9816],[92.1708,26.8858],[92.1539,26.8588],[92.0927,26.9066],[92.0705,26.8835],[92.0613,26.8932],[92.0494,26.9762],[92.0048,27.0163],[91.9768,27.0679],[91.9715,27.1747],[92.003,27.2166],[91.9835,27.2686],[92.0137,27.3092],[91.9891,27.4052],[91.9047,27.4225]]]}}]}
